CELESTIS-17 & SHERPA-FX1
1 47486U 21006CB  26068.64311433  .00007207  00000+0  24301-3 0  9993
2 47486  97.2397 112.1052 0006630 178.1385 181.9882 15.30994801284065
STARLINK-34194          
1 64179U 25113K   26068.44742680  .00032903  00000+0  11182-2 0  9997
2 64179  53.1604  91.8602 0001558  73.4243 286.6929 15.30197387 45034
