[{"OBJECT_NAME":"CELESTIS-17 & SHERPA-FX1","OBJECT_ID":"2021-006CB","EPOCH":"2026-03-09T15:26:05.078112","MEAN_MOTION":15.30994801,"ECCENTRICITY":0.000663,"INCLINATION":97.2397,"RA_OF_ASC_NODE":112.1052,"ARG_OF_PERICENTER":178.1385,"MEAN_ANOMALY":181.9882,"EPHEMERIS_TYPE":0,"CLASSIFICATION_TYPE":"U","NORAD_CAT_ID":47486,"ELEMENT_SET_NO":999,"REV_AT_EPOCH":28406,"BSTAR":0.00024301,"MEAN_MOTION_DOT":7.207e-5,"MEAN_MOTION_DDOT":0},{"OBJECT_NAME":"STARLINK-34194","OBJECT_ID":"2025-113K","EPOCH":"2026-03-09T10:44:17.675520","MEAN_MOTION":15.30197387,"ECCENTRICITY":0.00015582,"INCLINATION":53.1604,"RA_OF_ASC_NODE":91.8602,"ARG_OF_PERICENTER":73.4243,"MEAN_ANOMALY":286.6929,"EPHEMERIS_TYPE":0,"CLASSIFICATION_TYPE":"U","NORAD_CAT_ID":64179,"ELEMENT_SET_NO":999,"REV_AT_EPOCH":4503,"BSTAR":0.0011181958,"MEAN_MOTION_DOT":0.00032903,"MEAN_MOTION_DDOT":0}]
